import { IOrbit } from '@/core/models/types'

const Barycenters: IOrbit[] = [
  {
    id: 17,
    actorId: 24,
    semiMajorAxis: 1.015601417621483,
    eccentricity: 1.230420399763895e-2,
    inclination: 1.4135427418053e-2,
    argOfPeriapsis: 1.078087167575372,
    ascendingNode: 1.313721358356782e2,
    meanAnomalyAtEpoch: 7.821567153449494e1
  },
  {
    id: 18,
    actorId: 25,
    semiMajorAxis: 1.533379932426865,
    eccentricity: 9.177002627547723e-2,
    inclination: 1.848437707858971,
    argOfPeriapsis: 2.891403516248217e2,
    ascendingNode: 4.952420185140623e1,
    meanAnomalyAtEpoch: 1.574682637864123e2
  },
  {
    id: 19,
    actorId: 26,
    semiMajorAxis: 5.184950080834474,
    eccentricity: 4.683671524202863e-2,
    inclination: 1.303489215996807,
    argOfPeriapsis: 2.7276005173184e2,
    ascendingNode: 1.005062332030465e2,
    meanAnomalyAtEpoch: 8.38471901544823
  },
  {
    id: 20,
    actorId: 27,
    semiMajorAxis: 9.538069361500918,
    eccentricity: 5.500915585808187e-2,
    inclination: 2.487736019733611,
    argOfPeriapsis: 3.384907240487206e2,
    ascendingNode: 1.135920965911824e2,
    meanAnomalyAtEpoch: 2.428301001217243e2
  },
  {
    id: 21,
    actorId: 28,
    semiMajorAxis: 1.918795881993872e1,
    eccentricity: 4.727283774789717e-2,
    inclination: 7.721255234387229e-1,
    argOfPeriapsis: 9.711199092848462e1,
    ascendingNode: 7.40035088011043e1,
    meanAnomalyAtEpoch: 2.419789679224791e2
  },
  {
    id: 22,
    actorId: 29,
    semiMajorAxis: 3.007414301520739e1,
    eccentricity: 8.747389736376581e-3,
    inclination: 1.770231254744001,
    argOfPeriapsis: 2.725291303408503e2,
    ascendingNode: 1.317827982567603e2,
    meanAnomalyAtEpoch: 3.114867601538639e2
  },
  {
    id: 23,
    actorId: 30,
    semiMajorAxis: 3.948888827027903e1,
    eccentricity: 2.490160934326204e-1,
    inclination: 1.714068039292916e1,
    argOfPeriapsis: 1.137738200595554e2,
    ascendingNode: 1.103009958695043e2,
    meanAnomalyAtEpoch: 4.868258169510125e1
  }
]
const Common: IOrbit[] = [
  {
    id: 24,
    actorId: 31,
    semiMajorAxis: 8.711991402682097e-3,
    eccentricity: 1.573621288870041e-1,
    inclination: 1.415516823547642,
    argOfPeriapsis: 1.837072799690148e2,
    ascendingNode: 1.096044971242844e2,
    meanAnomalyAtEpoch: 2.701775106938757e2
  },
  {
    id: 25,
    actorId: 32,
    semiMajorAxis: 3.870984701463686e-1,
    eccentricity: 2.056312911931819e-1,
    inclination: 7.003578203679799,
    argOfPeriapsis: 2.919216956787836e1,
    ascendingNode: 4.830112279108046e1,
    meanAnomalyAtEpoch: 9.078989315913019e1
  },
  {
    id: 26,
    actorId: 33,
    semiMajorAxis: 7.233252229901025e-1,
    eccentricity: 6.751907969864723e-3,
    inclination: 3.394434609923295,
    argOfPeriapsis: 5.479854817958076e1,
    ascendingNode: 7.661630839251018e1,
    meanAnomalyAtEpoch: 8.70215692138923
  },
  {
    id: 27,
    actorId: 34,
    semiMajorAxis: 3.124285376730603e-5,
    eccentricity: 5.617649722814247e-2,
    inclination: 5.277301391898843,
    argOfPeriapsis: 1.093273092914739e2,
    ascendingNode: 3.371301783530973e1,
    meanAnomalyAtEpoch: 9.789359527330966e1
  },
  {
    id: 28,
    actorId: 35,
    semiMajorAxis: 4.370705490542326e-13,
    eccentricity: 6.196051266211704e-1,
    inclination: 2.824494300127015e1,
    argOfPeriapsis: 3.313744137139106e2,
    ascendingNode: 8.495344593394634e1,
    meanAnomalyAtEpoch: 1.937056046775105e2
  },
  {
    id: 29,
    actorId: 36,
    semiMajorAxis: 2.767310129303423,
    eccentricity: 7.886606256402912e-2,
    inclination: 1.058639765537056e1,
    argOfPeriapsis: 7.346865094531189e1,
    ascendingNode: 8.025853087926154e1,
    meanAnomalyAtEpoch: 2.942043932157666e1
  },
  {
    id: 30,
    actorId: 37,
    semiMajorAxis: 5.75962940626438e-7,
    eccentricity: 9.47722561814191e-1,
    inclination: 2.110945165369154,
    argOfPeriapsis: 1.530063994438263e2,
    ascendingNode: 3.356574912314962e2,
    meanAnomalyAtEpoch: 2.392475877165691e2
  },
  {
    id: 31,
    actorId: 38,
    semiMajorAxis: 1.648145096703172e-6,
    eccentricity: 1.568915841885989e-1,
    inclination: 2.818861123721728e1,
    argOfPeriapsis: 2.840335655056192e2,
    ascendingNode: 1.690012496244485e2,
    meanAnomalyAtEpoch: 1.684566859059781e2
  },
  {
    id: 32,
    actorId: 39,
    semiMajorAxis: 5.459913214588566e-8,
    eccentricity: 9.9683142501055e-1,
    inclination: 9.799856058349746e1,
    argOfPeriapsis: 1.362298036478842e2,
    ascendingNode: 1.676908888481596e2,
    meanAnomalyAtEpoch: 1.858799885109246e2
  },
  {
    id: 33,
    actorId: 40,
    semiMajorAxis: 2.238804251362252e-6,
    eccentricity: 9.620175047143015e-1,
    inclination: 1.292142793568033e2,
    argOfPeriapsis: 3.45239514571138e2,
    ascendingNode: 2.219454809369289e2,
    meanAnomalyAtEpoch: 3.428968064104422e2
  },
  {
    id: 34,
    actorId: 41,
    semiMajorAxis: 1.424922488074943e-5,
    eccentricity: 1.513645144197374e-4,
    inclination: 1.1288795512431e2,
    argOfPeriapsis: 3.547156039222869e2,
    ascendingNode: 2.273927766163783e2,
    meanAnomalyAtEpoch: 5.257727266003623e1
  },
  {
    id: 35,
    actorId: 42,
    semiMajorAxis: 4.290702155272246e1,
    eccentricity: 1.999538534122253e-1,
    inclination: 2.821006341432563e1,
    argOfPeriapsis: 2.404781854260978e2,
    ascendingNode: 1.220136091863266e2,
    meanAnomalyAtEpoch: 2.196310505561194e2
  },
  {
    id: 36,
    actorId: 43,
    semiMajorAxis: 4.527174581361132e1,
    eccentricity: 1.660010762933981e-1,
    inclination: 2.902039045994402e1,
    argOfPeriapsis: 2.959193551113156e2,
    ascendingNode: 7.934779518762248e1,
    meanAnomalyAtEpoch: 1.676461239736858e2
  },
  {
    id: 37,
    actorId: 44,
    semiMajorAxis: 6.814686260277956e1,
    eccentricity: 4.320832797908185e-1,
    inclination: 4.375695362578097e1,
    argOfPeriapsis: 1.509618557241282e2,
    ascendingNode: 3.607217566239468e1,
    meanAnomalyAtEpoch: 2.089430642429761e2
  },
  {
    id: 38,
    actorId: 45,
    semiMajorAxis: 5.348803422684762e2,
    eccentricity: 8.572051652452971e-1,
    inclination: 1.193013045961979e1,
    argOfPeriapsis: 3.108597815541983e2,
    ascendingNode: 1.442705583371275e2,
    meanAnomalyAtEpoch: 3.584852142405097e2
  }
]
const Satellites: IOrbit[] = [
  {
    id: 39,
    actorId: 46,
    semiMajorAxis: 2.540061764143003e-3,
    eccentricity: 5.617649722815178e-2,
    inclination: 5.277301391898843,
    argOfPeriapsis: 2.893273092914252e2,
    ascendingNode: 3.371301783530977e1,
    meanAnomalyAtEpoch: 9.789359527335836e1
  },
  {
    id: 40,
    actorId: 47,
    semiMajorAxis: 2.82218832294024e-3,
    eccentricity: 4.96146144385352e-3,
    inclination: 2.195143520626085,
    argOfPeriapsis: 2.573296038386765e2,
    ascendingNode: 3.368644031474224e2,
    meanAnomalyAtEpoch: 2.372487513539017e1
  },
  {
    id: 41,
    actorId: 48,
    semiMajorAxis: 4.487227724459941e-3,
    eccentricity: 9.273203940409551e-3,
    inclination: 2.400596891861762,
    argOfPeriapsis: 8.360274788350202e1,
    ascendingNode: 3.274255214683653e2,
    meanAnomalyAtEpoch: 1.941256315037582e2
  },
  {
    id: 42,
    actorId: 49,
    semiMajorAxis: 7.153745476462586e-3,
    eccentricity: 2.041271271358261e-3,
    inclination: 2.324748286426879,
    argOfPeriapsis: 3.422344264788978e2,
    ascendingNode: 3.399144987339523e2,
    meanAnomalyAtEpoch: 1.86468423823466e2
  },
  {
    id: 43,
    actorId: 50,
    semiMajorAxis: 1.258517683015779e-2,
    eccentricity: 7.224368755880143e-3,
    inclination: 1.955419441348968,
    argOfPeriapsis: 3.145618093014828e1,
    ascendingNode: 3.370223066759345e2,
    meanAnomalyAtEpoch: 9.448113489887868e1
  },
  {
    id: 44,
    actorId: 51,
    semiMajorAxis: 1.239165885435729e-3,
    eccentricity: 1.950436024693915e-2,
    inclination: 2.795621943188808e1,
    argOfPeriapsis: 3.466672914910517e2,
    ascendingNode: 1.661740298373831e2,
    meanAnomalyAtEpoch: 3.027023937857788e2
  },
  {
    id: 45,
    actorId: 52,
    semiMajorAxis: 1.590768765918404e-3,
    eccentricity: 4.0140443446043e-3,
    inclination: 2.806322790202351e1,
    argOfPeriapsis: 1.399095977238855e2,
    ascendingNode: 1.695182923367429e2,
    meanAnomalyAtEpoch: 1.877354952325927e2
  },
  {
    id: 46,
    actorId: 53,
    semiMajorAxis: 1.96852016166366e-3,
    eccentricity: 4.906027912411796e-4,
    inclination: 2.904886167878648e1,
    argOfPeriapsis: 3.197000851891221e2,
    ascendingNode: 1.685967536524158e2,
    meanAnomalyAtEpoch: 2.675818565377689e2
  },
  {
    id: 47,
    actorId: 54,
    semiMajorAxis: 2.520716487003145e-3,
    eccentricity: 1.772672694750518e-3,
    inclination: 2.803649564874407e1,
    argOfPeriapsis: 1.725501166715131e2,
    ascendingNode: 1.694704183703563e2,
    meanAnomalyAtEpoch: 5.556262055816524e1
  },
  {
    id: 48,
    actorId: 55,
    semiMajorAxis: 3.527359416096158e-3,
    eccentricity: 1.7382839097025e-3,
    inclination: 2.810246108935473e1,
    argOfPeriapsis: 1.552471560709482e2,
    ascendingNode: 1.701822622421989e2,
    meanAnomalyAtEpoch: 3.379116290699779e2
  },
  {
    id: 49,
    actorId: 56,
    semiMajorAxis: 8.166252522600009e-3,
    eccentricity: 2.873938088882117e-2,
    inclination: 2.770963174933997e1,
    argOfPeriapsis: 1.765416296955062e2,
    ascendingNode: 1.690631881774317e2,
    meanAnomalyAtEpoch: 9.799308114269664e1
  },
  {
    id: 50,
    actorId: 57,
    semiMajorAxis: 2.380451044016261e-2,
    eccentricity: 2.860016998904521e-2,
    inclination: 1.706111561628991e1,
    argOfPeriapsis: 2.310089498253412e2,
    ascendingNode: 1.38888266762586e2,
    meanAnomalyAtEpoch: 3.167927643486099e2
  },
  {
    id: 51,
    actorId: 58,
    semiMajorAxis: 8.678811821407167e-4,
    eccentricity: 1.205911847411715e-3,
    inclination: 1.019532944431624e2,
    argOfPeriapsis: 3.960967232758146,
    ascendingNode: 1.663893180256808e2,
    meanAnomalyAtEpoch: 9.225490063516435e1
  },
  {
    id: 52,
    actorId: 59,
    semiMajorAxis: 1.276471616533729e-3,
    eccentricity: 2.474425645652764e-4,
    inclination: 9.769555766645671e1,
    argOfPeriapsis: 1.74556061920439e2,
    ascendingNode: 1.676713791756605e2,
    meanAnomalyAtEpoch: 1.920572192997519e2
  },
  {
    id: 53,
    actorId: 60,
    semiMajorAxis: 1.778163507702681e-3,
    eccentricity: 3.857053820182882e-3,
    inclination: 9.770726827089726e1,
    argOfPeriapsis: 5.849026540934344e1,
    ascendingNode: 1.676986943271656e2,
    meanAnomalyAtEpoch: 4.144873237937239
  },
  {
    id: 54,
    actorId: 61,
    semiMajorAxis: 2.916275300662327e-3,
    eccentricity: 2.494144853515723e-3,
    inclination: 9.777101053663385e1,
    argOfPeriapsis: 2.381946120053947e2,
    ascendingNode: 1.676312871672664e2,
    meanAnomalyAtEpoch: 3.22281947804563e2
  },
  {
    id: 55,
    actorId: 62,
    semiMajorAxis: 3.900290723343614e-3,
    eccentricity: 8.753966376853584e-4,
    inclination: 9.79099012720188e1,
    argOfPeriapsis: 1.529023950256606e2,
    ascendingNode: 1.677149941111006e2,
    meanAnomalyAtEpoch: 2.944471941367638e2
  },
  {
    id: 56,
    actorId: 63,
    semiMajorAxis: 2.370964598801408e-3,
    eccentricity: 3.113005146619756e-5,
    inclination: 1.292220646598841e2,
    argOfPeriapsis: 2.635056322078647e2,
    ascendingNode: 2.219467611844911e2,
    meanAnomalyAtEpoch: 3.48455669539342e2
  },
  {
    id: 57,
    actorId: 64,
    semiMajorAxis: 1.167384040646722e-4,
    eccentricity: 1.525988324897723e-4,
    inclination: 1.12887943699595e2,
    argOfPeriapsis: 1.669975140679648e2,
    ascendingNode: 2.273927902163876e2,
    meanAnomalyAtEpoch: 6.02945968046855e1
  },
  {
    id: 58,
    actorId: 65,
    semiMajorAxis: 2.491642854253084e-4,
    eccentricity: 6.074623100450718e-3,
    inclination: 6.160969712513381e1,
    argOfPeriapsis: 1.554079313960994e2,
    ascendingNode: 1.390978372358126e2,
    meanAnomalyAtEpoch: 2.03947910923442e2
  }
]

export const SolarSystemOrbits: IOrbit[] = [...Barycenters, ...Common, ...Satellites]
